[
  {
    "OBJECT_NAME": "STARLINK-35627",
    "OBJECT_ID": "25240AC",
    "EPOCH": "2025-11-11T06:00:02.000160",
    "MEAN_MOTION": 15.69111688,
    "ECCENTRICITY": 0.0001011,
    "INCLINATION": 53.1592,
    "RA_OF_ASC_NODE": 255.3322,
    "ARG_OF_PERICENTER": 95.3283,
    "MEAN_ANOMALY": 177.2815,
    "EPHEMERIS_TYPE": 0,
    "CLASSIFICATION_TYPE": "U",
    "NORAD_CAT_ID": 66172,
    "ELEMENT_SET_NO": 999,
    "REV_AT_EPOCH": 384,
    "BSTAR": 0.0,
    "MEAN_MOTION_DOT": -0.00795445,
    "MEAN_MOTION_DDOT": 0.0,
    "TLE_LINE1": "1 66172U 25240AC  25315.25002315 -.00795445  00000+0 -73984-2 0  9997",
    "TLE_LINE2": "2 66172  53.1592 255.3322 0001011  95.3283 177.2815 15.69111688  3846",
    "COMMENT": "Grouped by shell and plane from TLE"
  },
  {
    "OBJECT_NAME": "STARLINK-35634",
    "OBJECT_ID": "25240AD",
    "EPOCH": "2025-11-11T06:00:02.000160",
    "MEAN_MOTION": 15.6912067,
    "ECCENTRICITY": 0.0001112,
    "INCLINATION": 53.1591,
    "RA_OF_ASC_NODE": 255.3165,
    "ARG_OF_PERICENTER": 75.793,
    "MEAN_ANOMALY": 204.4846,
    "EPHEMERIS_TYPE": 0,
    "CLASSIFICATION_TYPE": "U",
    "NORAD_CAT_ID": 66173,
    "ELEMENT_SET_NO": 999,
    "REV_AT_EPOCH": 384,
    "BSTAR": 0.0,
    "MEAN_MOTION_DOT": -0.00811137,
    "MEAN_MOTION_DDOT": 0.0,
    "TLE_LINE1": "1 66173U 25240AD  25315.25002315 -.00811137  00000+0 -75559-2 0  9995",
    "TLE_LINE2": "2 66173  53.1591 255.3165 0001112  75.7930 204.4846 15.69120670  3842",
    "COMMENT": "Grouped by shell and plane from TLE"
  }
]